{
  "norad_id": 60472,
  "name": "CONNECTA IOT-1",
  "history": [
    {
      "epoch": "2026-03-28T18:05:40.546464Z",
      "apogee_km": 498.7870540363465,
      "perigee_km": 495.56239533123517,
      "latitude_deg": -2.816562021595615e-05,
      "longitude_deg": 67.84230549633328,
      "height_km": 501.72798287756683,
      "semi_major_axis_km": 6875.31172468379,
      "eccentricity": 0.00023451,
      "inclination_deg": 97.3793,
      "raan_deg": 165.4311,
      "arg_perigee_deg": 154.851,
      "mean_anomaly_deg": 205.2841,
      "mean_motion_rev_day": 15.22874699
    },
    {
      "epoch": "2026-03-29T05:08:00.223008Z",
      "apogee_km": 498.7474626581934,
      "perigee_km": 495.5532041630904,
      "latitude_deg": 7.126919322541628e-06,
      "longitude_deg": -97.74123200399592,
      "height_km": 501.68202875397833,
      "semi_major_axis_km": 6875.287333410642,
      "eccentricity": 0.0002323,
      "inclination_deg": 97.3792,
      "raan_deg": 165.8829,
      "arg_perigee_deg": 154.2017,
      "mean_anomaly_deg": 205.9336,
      "mean_motion_rev_day": 15.22882803
    },
    {
      "epoch": "2026-03-30T04:47:16.200384Z",
      "apogee_km": 498.76086261581804,
      "perigee_km": 495.4632181660854,
      "latitude_deg": 7.515879622787828e-05,
      "longitude_deg": -92.56086579253629,
      "height_km": 501.66099037790457,
      "semi_major_axis_km": 6875.249040390951,
      "eccentricity": 0.00023982,
      "inclination_deg": 97.3794,
      "raan_deg": 166.8513,
      "arg_perigee_deg": 151.9675,
      "mean_anomaly_deg": 208.1692,
      "mean_motion_rev_day": 15.22895526
    },
    {
      "epoch": "2026-03-30T11:05:44.337408Z",
      "apogee_km": 498.77289141283836,
      "perigee_km": 495.43001297261253,
      "latitude_deg": -3.534104092453128e-05,
      "longitude_deg": 172.82105835179408,
      "height_km": 501.6595048532246,
      "semi_major_axis_km": 6875.238452192725,
      "eccentricity": 0.00024311,
      "inclination_deg": 97.3793,
      "raan_deg": 167.1095,
      "arg_perigee_deg": 151.1887,
      "mean_anomaly_deg": 208.9484,
      "mean_motion_rev_day": 15.22899044
    },
    {
      "epoch": "2026-03-30T18:58:49.428768Z",
      "apogee_km": 498.76718439448905,
      "perigee_km": 495.406712432984,
      "latitude_deg": -1.0524972045809163e-05,
      "longitude_deg": 54.54882645760259,
      "height_km": 501.6492373749535,
      "semi_major_axis_km": 6875.223948413736,
      "eccentricity": 0.00024439,
      "inclination_deg": 97.3793,
      "raan_deg": 167.4323,
      "arg_perigee_deg": 150.9455,
      "mean_anomaly_deg": 209.1918,
      "mean_motion_rev_day": 15.22903863
    },
    {
      "epoch": "2026-03-31T15:28:50.380320Z",
      "apogee_km": 498.7878429044913,
      "perigee_km": 495.32412068026406,
      "latitude_deg": 1.6615232053361697e-05,
      "longitude_deg": 107.04224336990721,
      "height_km": 501.6336225567124,
      "semi_major_axis_km": 6875.192981792377,
      "eccentricity": 0.0002519,
      "inclination_deg": 97.3792,
      "raan_deg": 168.2716,
      "arg_perigee_deg": 148.9882,
      "mean_anomaly_deg": 211.1504,
      "mean_motion_rev_day": 15.22914152
    },
    {
      "epoch": "2026-04-01T19:51:55.523808Z",
      "apogee_km": 498.82038834710056,
      "perigee_km": 495.2191812232304,
      "latitude_deg": 3.237319948300564e-05,
      "longitude_deg": 41.266990903046576,
      "height_km": 501.61478920693804,
      "semi_major_axis_km": 6875.156784785166,
      "eccentricity": 0.0002619,
      "inclination_deg": 97.3787,
      "raan_deg": 169.4335,
      "arg_perigee_deg": 146.5225,
      "mean_anomaly_deg": 213.6178,
      "mean_motion_rev_day": 15.22926179
    },
    {
      "epoch": "2026-04-02T14:47:18.384864Z",
      "apogee_km": 498.82590917732887,
      "perigee_km": 495.14744300567327,
      "latitude_deg": 5.1101503965221264e-05,
      "longitude_deg": 117.41929404188406,
      "height_km": 501.58830900501044,
      "semi_major_axis_km": 6875.123676091501,
      "eccentricity": 0.00026752,
      "inclination_deg": 97.3785,
      "raan_deg": 170.2082,
      "arg_perigee_deg": 145.1104,
      "mean_anomaly_deg": 215.0309,
      "mean_motion_rev_day": 15.2293718
    }
  ]
}